*******************************************************************************
JPL/HORIZONS               4197 Morpheus (1982 TA)         2023-Sep-04 11:27:51
Rec #:    4197 (+COV) Soln.date: 2023-Aug-25_06:28:29   # obs: 1010 (1954-2023)
 
IAU76/J2000 helio. ecliptic osc. elements (au, days, deg., period=Julian yrs):
 
  EPOCH=  2457684.5 ! 2016-Oct-23.00 (TDB)         Residual RMS= .26876
   EC= .7716697030081285   QR= .5244306975608898   TP= 2458071.5280656456
   OM= 7.183387736087941   W=  122.4110823531104   IN= 12.57733876887715
   A= 2.296807320228552    MA= 250.4128360495355   ADIST= 4.069183942896215
   PER= 3.48093            N= .283150432           ANGMOM= .016581235
   DAN= 1.58446            DDN= .65727             L= 130.2274198
   B= 10.5932729           MOID= .0986192          TP= 2017-Nov-14.0280656456
 
Asteroid physical parameters (km, seconds, rotational period in hours):
   GM= n.a.                RAD= .900               ROTPER= 3.538
   H= 15.03                G= .150                 B-V= n.a.
                           ALBEDO= .370            STYP= Sq

ASTEROID comments: 
1: soln ref.= JPL#164, OCC=0           radar( 4 delay, 2 Dop.)
2: source=ORB
*******************************************************************************


*******************************************************************************
Ephemeris / API_USER Mon Sep  4 11:27:51 2023 Pasadena, USA      / Horizons
*******************************************************************************
Target body name: 4197 Morpheus (1982 TA)         {source: JPL#164}
Center body name: Solar System Barycenter (0)     {source: DE441}
Center-site name: BODY CENTER
*******************************************************************************
Start time      : A.D. 2023-Aug-12 00:00:00.0000 TDB
Stop  time      : A.D. 2023-Aug-13 00:00:00.0000 TDB
Step-size       : 2880 minutes
*******************************************************************************
Center geodetic : 0.0, 0.0, 0.0                   {E-lon(deg),Lat(deg),Alt(km)}
Center cylindric: 0.0, 0.0, 0.0                   {E-lon(deg),Dxy(km),Dz(km)}
Center radii    : (undefined)
Small perturbers: Yes                             {source: SB441-N16}
Output units    : KM-S
Calendar mode   : Mixed Julian/Gregorian
Output type     : GEOMETRIC cartesian states
Output format   : 2 (position and velocity)
Reference frame : Ecliptic of J2000.0
*******************************************************************************
Initial IAU76/J2000 heliocentric ecliptic osculating elements (au, days, deg.):
  EPOCH=  2457684.5 ! 2016-Oct-23.00 (TDB)         Residual RMS= .26876        
   EC= .7716697030081285   QR= .5244306975608898   TP= 2458071.5280656456      
   OM= 7.183387736087941   W=  122.4110823531104   IN= 12.57733876887715       
  Equivalent ICRF heliocentric cartesian coordinates (au, au/d):
   X= 2.965097970317408E+00  Y=-1.646070141383441E+00  Z=-1.292211787077116E+00
  VX=-3.549435693429499E-04 VY= 4.724028266434142E-03 VZ= 3.434206610369313E-03
Asteroid physical parameters (km, seconds, rotational period in hours):        
   GM= n.a.                RAD= .900               ROTPER= 3.538               
   H= 15.03                G= .150                 B-V= n.a.                   
                           ALBEDO= .370            STYP= Sq                    
*******************************************************************************
JDTDB
   X     Y     Z
   VX    VY    VZ
*******************************************************************************
$$SOE
2460168.500000000 = A.D. 2023-Aug-12 00:00:00.0000 TDB 
 X = 4.406224082131960E+08 Y =-3.479714824874025E+08 Z =-8.918290478595786E+07
 VX= 1.038348826873257E+00 VY= 8.640939963387602E+00 VZ= 1.892495188269609E+00
$$EOE
*******************************************************************************
 
TIME

  Barycentric Dynamical Time ("TDB" or T_eph) output was requested. This
continuous coordinate time is equivalent to the relativistic proper time
of a clock at rest in a reference frame co-moving with the solar system
barycenter but outside the system's gravity well. It is the independent
variable in the solar system relativistic equations of motion.

  TDB runs at a uniform rate of one SI second per second and is independent
of irregularities in Earth's rotation.
 
CALENDAR SYSTEM

  Mixed calendar mode was active such that calendar dates after AD 1582-Oct-15
(if any) are in the modern Gregorian system. Dates prior to 1582-Oct-5 (if any)
are in the Julian calendar system, which is automatically extended for dates
prior to its adoption on 45-Jan-1 BC.  The Julian calendar is useful for
matching historical dates. The Gregorian calendar more accurately corresponds
to the Earth's orbital motion and seasons. A "Gregorian-only" calendar mode is
available if such physical events are the primary interest.

REFERENCE FRAME AND COORDINATES

  Ecliptic at the standard reference epoch

    Reference epoch: J2000.0
    X-Y plane: adopted Earth orbital plane at the reference epoch
               Note: IAU76 obliquity of 84381.448 arcseconds wrt ICRF X-Y plane
    X-axis   : ICRF
    Z-axis   : perpendicular to the X-Y plane in the directional (+ or -) sense
               of Earth's north pole at the reference epoch.

  Symbol meaning:

    JDTDB    Julian Day Number, Barycentric Dynamical Time
      X      X-component of position vector (km)
      Y      Y-component of position vector (km)
      Z      Z-component of position vector (km)
      VX     X-component of velocity vector (km/sec)                           
      VY     Y-component of velocity vector (km/sec)                           
      VZ     Z-component of velocity vector (km/sec)                           

ABERRATIONS AND CORRECTIONS

 Geometric state vectors have NO corrections or aberrations applied.

Computations by ...

    Solar System Dynamics Group, Horizons On-Line Ephemeris System
    4800 Oak Grove Drive, Jet Propulsion Laboratory
    Pasadena, CA  91109   USA

    General site: https://ssd.jpl.nasa.gov/
    Mailing list: https://ssd.jpl.nasa.gov/email_list.html
    System news : https://ssd.jpl.nasa.gov/horizons/news.html
    User Guide  : https://ssd.jpl.nasa.gov/horizons/manual.html
    Connect     : browser        https://ssd.jpl.nasa.gov/horizons/app.html#/x
                  API            https://ssd-api.jpl.nasa.gov/doc/horizons.html
                  command-line   telnet ssd.jpl.nasa.gov 6775
                  e-mail/batch   https://ssd.jpl.nasa.gov/ftp/ssd/hrzn_batch.txt
                  scripts        https://ssd.jpl.nasa.gov/ftp/ssd/SCRIPTS
    Author      : Jon.D.Giorgini@jpl.nasa.gov
*******************************************************************************
